ORBVIEW 2 (SEASTAR)     
1 24883U 97037A   13127.75658038  .00000269  00000-0  11494-3 0   267
2 24883  98.4476 243.5359 0001941 199.2006 311.0221 14.32625817836868
METEOSAT-7              
1 24932U 97049B   13127.83616521  .00000047  00000-0  00000+0 0  6273
2 24932   8.3498  52.6325 0001264  54.3934 117.3413  1.00276049 57436
NOAA 15                 
1 25338U 98030A   13127.64908568  .00000182  00000-0  96462-4 0  7216
2 25338  98.7224 118.0797 0009711 241.6276 226.1201 14.25210378779060
NOAA 16                 
1 26536U 00055A   13127.63824404  .00000222  00000-0  14384-3 0  1987
2 26536  99.0457 179.9953 0009740 245.9749 276.8309 14.12868309650841
GOES 12                 
1 26871U 01031A   13127.42875465 -.00000298  00000-0  00000+0 0   455
2 26871   2.9668  69.7688 0003809  22.0082 228.2511  1.00274286 43249
FENGYUN 1D              
1 27431U 02024B   13128.47575725 -.00000100  00000-0 -32161-4 0  2063
2 27431  98.8127  93.3733 0015520 355.1777   4.9228 14.09394125565009
NOAA 17                 
1 27453U 02032A   13127.49208297  .00000065  00000-0  45507-4 0  1216
2 27453  98.3134 143.7294 0010410 285.7882 238.6637 14.24585591564922
METEOSAT-8 (MSG-1)      
1 27509U 02040B   13128.11255730  .00000011  00000-0  00000+0 0  3623
2 27509   2.0441  62.5236 0000993  60.7760 146.9351  1.00275833 39243
KALPANA-1 (METSAT 1)    
1 27525U 02043A   13126.58926520 -.00000093  00000-0  00000+0 0  6887
2 27525   3.5634  67.1966 0003252 222.9933 220.5058  1.00272422 39027
INSAT-3A                
1 27714U 03013A   13127.67328613 -.00000272  00000-0  10000-3 0  6698
2 27714   0.1094  79.3908 0001984 295.4933 186.6543  1.00271268 36942
FENGYUN 2C              
1 28451U 04042A   13127.89230022 -.00000371  00000-0  10000-3 0  6768
2 28451   4.6583  62.8173 0002360  72.7169 175.1221  1.00270445 31295
HIMAWARI-6 (MTSAT-1R)   
1 28622U 05006A   13126.69863778 -.00000297  00000-0  10000-3 0  8798
2 28622   0.0267   0.5663 0000597 295.2122 320.4711  1.00271129 29980
NOAA 18                 
1 28654U 05018A   13127.61897693  .00000267  00000-0  17166-3 0  6066
2 28654  99.0964  95.2603 0013505 326.5062 140.1193 14.11807505410339
METEOSAT-9 (MSG-2)      
1 28912U 05049B   13126.87971287  .00000047  00000-0  00000+0 0  5347
2 28912   0.4744  30.8029 0001129 331.1772 188.8385  1.00273743 27087
MTSAT-2                 
1 28937U 06004A   13127.84556348 -.00000256  00000-0  00000+0 0  4073
2 28937   0.0228 259.9379 0003925 140.1994 275.1233  1.00270311 26482
FORMOSAT-3 FM6          
1 29047U 06011A   13127.74040606  .00000325  00000-0  14667-3 0   911
2 29047  71.9813   8.9564 0052517 220.7678 174.2518 14.27653279370416
FORMOSAT-3 FM1          
1 29048U 06011B   13127.84462368  .00000366  00000-0  16337-3 0  1727
2 29048  71.9701 282.5466 0044639 173.9971 332.9722 14.27652455372906
FORMOSAT-3 FM5          
1 29049U 06011C   13128.41064948  .00000338  00000-0  15272-3 0  1090
2 29049  72.0217  78.3959 0036681 223.4291 284.3858 14.27664677368761
FORMOSAT-3 FM3          
1 29050U 06011D   13128.45179144  .00001218  00000-0  28327-3 0  4424
2 29050  72.0162 124.7928 0053215 356.1010   3.9718 14.55812431377910
FORMOSAT-3 FM4          
1 29051U 06011E   13127.79338506  .00000374  00000-0  16396-3 0  1635
2 29051  72.0077 346.2655 0067971  94.7994 310.4785 14.27675060371260
FORMOSAT-3 FM2          
1 29052U 06011F   13127.34379054  .00000351  00000-0  15748-3 0  1848
2 29052  72.0372  53.7049 0041418 191.7655 315.8871 14.27726629369503
GOES 13                 
1 29155U 06018A   13128.37322943 -.00000262  00000-0  10000-3 0  5413
2 29155   0.2763 262.2431 0003967 179.0799 204.7184  1.00268600 25500
METOP-A                 
1 29499U 06044A   13127.82753852  .00000113  00000-0  71692-4 0   356
2 29499  98.7168 188.0149 0001526 167.5880 192.5335 14.21489675339846
FENGYUN 2D              
1 29640U 06053A   13127.93491932 -.00000212  00000-0  10000-3 0  6716
2 29640   1.5201  72.2921 0002260  16.7985 200.0463  1.00273473 23547
FENGYUN 3A              
1 32958U 08026A   13128.28943876  .00000099  00000-0  67693-4 0  9101
2 32958  98.6071 194.5493 0009242 310.6655  49.3716 14.19343829256409
NOAA 19                 
1 33591U 09005A   13127.49248793  .00000178  00000-0  12234-3 0  7905
2 33591  98.9018  69.8832 0014169 180.3793 313.3178 14.11494997218754
GOES 14                 
1 35491U 09033A   13127.32470250 -.00000101  00000-0  00000+0 0  9446
2 35491   0.1561  84.1378 0003063 115.3511  37.2213  1.00273051 14166
METEOR-M 1              
1 35865U 09049A   13128.25632360 -.00000012  00000-0  14208-4 0  4281
2 35865  98.6052 181.6532 0002162 170.4406 189.6814 14.21884709188792
GOES 15                 
1 36411U 10008A   13128.37724833  .00000078  00000-0  10000-3 0  5609
2 36411   0.1094  87.0577 0001364 332.4967 167.1977  1.00270171 11675
COMS 1                  
1 36744U 10032A   13128.39623916 -.00000356  00000-0  10000-3 0  5685
2 36744   0.0137 328.1169 0000969  15.1119 153.9883  1.00271052 10645
FENGYUN 3B              
1 37214U 10059A   13128.45433783  .00000125  00000-0  80799-4 0  7683
2 37214  98.7990  73.5218 0001292 130.4100 229.7178 14.19333243129922
ELEKTRO-L 1 (GOMS 2)    
1 37344U 11001A   13127.72143133 -.00000112  00000-0  00000+0 0  6083
2 37344   0.0170 255.8482 0001444 222.8410  82.8820  1.00272021  8457
SUOMI NPP               
1 37849U 11061A   13127.83695854  .00000062  00000-0  50376-4 0  4833
2 37849  98.7507  66.8324 0001560 128.0759 308.1681 14.19542487 79099
FENGYUN 2F              
1 38049U 12002A   13127.89289483 -.00000371  00000-0  10000-3 0  3545
2 38049   1.3643 277.9642 0003681 251.7905 129.6542  1.00273496  4888
METOP-B                 
1 38771U 12049A   13127.72489866  .00000108  00000-0  69508-4 0  2002
2 38771  98.7057 188.6314 0000818 300.5523  59.5574 14.21479611 32961
METEOSAT-10 (MSG-3)     
1 38552U 12035B   13128.05290564 -.00000010  00000-0  00000+0 0  3265
2 38552   1.1828 245.1267 0001981 193.5788 166.7977  1.00281346  3216
